COSMOS 1953             
1 19210U 88050A   24133.38452535  .00014929  00000+0  80533-3 0  9998
2 19210  82.5132 101.7110 0012605 298.3440  61.6520 15.14586033957570
SL-8 R/B                
1 19257U 88053B   24133.53630139  .00001124  00000+0  37816-3 0  9996
2 19257  74.0476 259.6891 0021111 247.0893 187.9841 14.38156106881081
COSMOS 1975             
1 19573U 88093A   24133.52937356  .00013088  00000+0  72005-3 0  9992
2 19573  82.5286  59.1197 0014391 351.2687   8.8292 15.13863922939303
SL-14 R/B               
1 19574U 88093B   24132.98915197  .00001789  00000+0  20908-3 0  9991
2 19574  82.5292 307.3150 0022687  83.2257  35.2622 14.84409062923177
SL-16 R/B               
1 19650U 88102B   24132.93334655  .00000100  00000+0  74858-4 0  9996
2 19650  70.9971 114.2372 0016167 300.9842  58.9692 14.15964040832504
INTERCOSMOS 24          
1 20261U 89080A   24133.21442140  .00002775  00000+0  81828-3 0  9997
2 20261  82.6064 177.5147 1195461  37.6721 330.2280 12.57952225582535
SL-14 R/B               
1 20262U 89080C   24132.73778915  .00000741  00000+0  22715-3 0  9997
2 20262  82.5955 241.2614 1232576 268.5366  77.4560 12.49651860576818
DELTA 1 R/B             
1 20323U 89089B   24133.09948288  .00002127  00000+0  54641-3 0  9999
2 20323  97.1149  73.4034 0072009  66.3930 294.4807 14.49457645819651
ARIANE 40 R/B           
1 20443U 90005H   24132.93719964  .00001656  00000+0  55106-3 0  9994
2 20443  98.3950 199.2470 0011186  53.0695 307.1516 14.38912627796880
DELTA 2 R/B(1)          
1 20453U 90008B   24133.45169685  .00032297  00000+0  12414-2 0  9994
2 20453  35.6197  51.3254 0203630  77.2536 285.0861 15.08372667824123
COSMOS 2058             
1 20465U 90010A   24132.83609587  .00013900  00000+0  10214-2 0  9997
2 20465  82.4859 339.6252 0015598  71.5944 288.6976 15.03236683862877
SL-14 R/B               
1 20466U 90010B   24132.82198867  .00001491  00000+0  18276-3 0  9990
2 20466  82.5030 173.1895 0019569 340.7915  19.2559 14.82400446829644
SL-14 R/B               
1 20511U 90018B   24133.08334150  .00001538  00000+0  19517-3 0  9996
2 20511  82.5192 125.6987 0018056 121.2072 239.0914 14.81004088844964
HST                     
1 20580U 90037B   24133.54080029  .00010830  00000+0  51982-3 0  9994
2 20580  28.4679 223.8771 0002481  20.0780 339.9910 15.17244003671875
SL-16 R/B               
1 20625U 90046B   24132.75492655  .00000392  00000+0  22772-3 0  9995
2 20625  70.9988 258.4048 0016155 241.6006 118.3488 14.14826898754051
COSMOS 2084             
1 20663U 90055A   24132.93264638  .00015716  00000+0  11563-2 0  9996
2 20663  62.7920  78.8856 0115770 116.6712 244.6295 14.98310040836135
SL-6 R/B(2)             
1 20666U 90055D   24132.90103220  .00012897  00000+0  10157-2 0  9990
2 20666  62.7855 352.7815 0091497 139.3484 221.4491 14.97830609838096
SL-8 R/B                
1 20775U 90078B   24133.45856590  .00027818  00000+0  11095-2 0  9993
2 20775  82.9141 117.0332 0477380  48.1473 315.9458 14.58892323711101
SL-8 R/B                
1 21088U 91006B   24132.95300031  .00000383  00000+0  37015-3 0  9990
2 21088  82.9398 305.9957 0023890 102.1051  51.5159 13.77338568672282
OKEAN-3                 
1 21397U 91039A   24132.83616435  .00016577  00000+0  13962-2 0  9990
2 21397  82.5197 259.8002 0017285  74.3617 285.9511 14.97997962764958
COSMOS 2151             
1 21422U 91042A   24132.91368548  .00008591  00000+0  76900-3 0  9990
2 21422  82.5004   4.7084 0014342 141.8054 218.4187 14.95649900763365
SL-14 R/B               
1 21423U 91042B   24133.07230710  .00001527  00000+0  19521-3 0  9996
2 21423  82.4909 124.8627 0015683 270.6052  89.3364 14.80734211775420
ERS-1                   
1 21574U 91050A   24132.90341396  .00001440  00000+0  48337-3 0  9997
2 21574  98.7770 123.7827 0032983  21.3068 338.9484 14.38506035719836
ARIANE 40 R/B           
1 21610U 91050F   24132.92916667  .00001868  00000+0  58446-3 0  9995
2 21610  98.2915 195.8911 0001921 305.5709  54.5301 14.41827393722878
INTERCOSMOS 25          
1 21819U 91086A   24133.55636256  .00004601  00000+0  90682-3 0  9994
2 21819  82.6081 351.7694 1501948 109.5114 267.4013 12.08670538416118
SL-8 R/B                
1 21876U 92008B   24132.87806036  .00000252  00000+0  24376-3 0  9996
2 21876  82.9298  43.6088 0034250 194.8145 234.7153 13.75822755617722
SL-8 R/B                
1 21938U 92020B   24132.94509812  .00000328  00000+0  32539-3 0  9993
2 21938  82.9277 288.9163 0029088   1.5649 111.8197 13.75413609609472
COSMOS 2219             
1 22219U 92076A   24133.54668336 -.00000001  00000+0  24214-4 0  9992
2 22219  71.0606 330.4014 0016609 144.5135 215.7096 14.13857709624544
SL-16 R/B               
1 22220U 92076B   24132.85502619  .00000090  00000+0  68786-4 0  9997
2 22220  70.9979 152.8541 0011754  21.9845 107.8337 14.16651485627380
COSMOS 2221             
1 22236U 92080A   24132.63368945  .00009189  00000+0  91205-3 0  9996
2 22236  82.5073 195.8147 0013998 266.5800  93.3818 14.91575173681183
SL-16 R/B               
1 22285U 92093B   24133.56414248  .00000516  00000+0  28942-3 0  9998
2 22285  71.0213 322.4556 0006208 250.3719 109.6734 14.15250705619225
COSMOS 2228             
1 22286U 92094A   24133.52489281  .00006392  00000+0  62510-3 0  9992
2 22286  82.5174 152.8243 0020210  24.5234 335.6942 14.92049929697608
SL-16 R/B               
1 22566U 93016B   24133.54117390 -.00000048  00000+0 -34601-6 0  9996
2 22566  71.0067 174.1181 0012758 259.7737 100.1947 14.15131655607939
COSMOS 2242             
1 22626U 93024A   24132.88063668  .00009639  00000+0  95181-3 0  9996
2 22626  82.5207 182.2431 0018239  28.2843 331.9363 14.91729288681122
SL-16 R/B               
1 22803U 93059B   24133.00810019  .00000229  00000+0  13729-3 0  9990
2 22803  70.9910 336.8298 0016092 152.9488 207.2478 14.17024235585341
ARIANE 40 R/B           
1 22830U 93061H   24132.80863486  .00001384  00000+0  53060-3 0  9991
2 22830  98.5724 200.8621 0012075  95.6278 264.6283 14.32089319598624
COSMOS 2278             
1 23087U 94023A   24133.18092576  .00000511  00000+0  29313-3 0  9996
2 23087  71.0500 129.2856 0009941 315.8673  44.1656 14.14078071550823
SL-16 R/B               
1 23088U 94023B   24133.12810844  .00000158  00000+0  10674-3 0  9994
2 23088  71.0012  30.5673 0005257 244.8072 115.2506 14.14837671552075
SL-16 R/B               
1 23343U 94074B   24133.11322146  .00002051  00000+0  29089-3 0  9990
2 23343  97.7905 177.2628 0005728 218.5139 195.8136 14.78026693588941
SL-16 R/B               
1 23405U 94077B   24132.94452120  .00000062  00000+0  56479-4 0  9992
2 23405  70.9830 315.0219 0000396 145.7800 214.3348 14.15388964521885
ARIANE 40+ R/B          
1 23561U 95021B   24132.83551111  .00001631  00000+0  54467-3 0  9990
2 23561  98.5288 199.5037 0006363 347.6844 126.8934 14.38825826523311
SL-16 R/B               
1 23705U 95058B   24132.77903397  .00000387  00000+0  22280-3 0  9995
2 23705  71.0194 140.2652 0010734  49.7282 310.4777 14.15310008473486
SL-16 R/B               
1 24298U 96051B   24133.17850613 -.00000092  00000+0 -23275-4 0  9995
2 24298  70.8047 144.8188 0015033  31.5558 328.6460 14.12484459427796
ORBVIEW 2 (SEASTAR)     
1 24883U 97037A   24132.94678447  .00001538  00000+0  56165-3 0  9994
2 24883  98.7699 272.2946 0001757 193.6242 166.4895 14.34504419412847
SL-16 R/B               
1 25400U 98043G   24133.11919284  .00000420  00000+0  19560-3 0  9992
2 25400  98.7432  74.2671 0010448 143.9820 216.2065 14.25741559344227
SL-16 R/B               
1 25407U 98045B   24133.18300212  .00000105  00000+0  77308-4 0  9998
2 25407  71.0092 143.0401 0009196 309.8474  50.1840 14.15998103333011
ISS (ZARYA)             
1 25544U 98067A   24133.52666473  .00060366  00000+0  10113-2 0  9990
2 25544  51.6381 132.1815 0003333 161.5737 343.4536 15.51259398453018
CZ-4B R/B               
1 25732U 99025C   24133.57236588  .00000445  00000+0  23680-3 0  9995
2 25732  98.7543 179.1949 0038410  97.8459  27.2507 14.17955333293890
OKEAN-O                 
1 25860U 99039A   24132.87371547  .00005062  00000+0  70232-3 0  9994
2 25860  98.0377 185.2991 0001272  72.0719 288.0630 14.78369343335882
SL-16 R/B               
1 25861U 99039B   24132.85836341  .00003302  00000+0  44264-3 0  9992
2 25861  98.0908 178.5515 0013870 254.7647 105.2031 14.80025096338162
DELTA 2 R/B             
1 25876U 99041E   24133.11597266  .00004632  00000+0  80078-3 0  9991
2 25876  51.7637  76.8633 0517769 186.0496 173.4015 14.08098818268993
HELIOS 1B               
1 25977U 99064A   24133.17515945  .00004971  00000+0  59960-3 0  9990
2 25977  98.2491   3.6163 0002608  80.3514 279.7993 14.84285505317572
TERRA                   
1 25994U 99068A   24133.52339076  .00002559  00000+0  54569-3 0  9991
2 25994  98.0489 198.0565 0003402 107.9743   3.7935 14.59736003297961
SL-16 R/B               
1 26070U 00006B   24133.52106961  .00000235  00000+0  14429-3 0  9996
2 26070  71.0038  58.3798 0014551 119.6764 240.5809 14.15633821254256
TITAN 4B R/B            
1 26474U 00047B   24133.17495757  .00012151  00000+0  91970-3 0  9990
2 26474  67.9920 104.4298 0044273  64.9372 295.6359 15.01745463292634
ENVISAT                 
1 27386U 02009A   24133.49191824  .00000662  00000+0  22996-3 0  9992
2 27386  98.2801  95.8267 0001194  87.7460  22.5641 14.38565513163449
IDEFIX & ARIANE 42P R/B 
1 27422U 02021B   24132.83918196  .00001448  00000+0  57672-3 0  9995
2 27422  98.5260  71.2545 0012055 357.3180   2.7936 14.30087015148675
AQUA                    
1 27424U 02022A   24133.51415809  .00004097  00000+0  87780-3 0  9993
2 27424  98.3284  82.7570 0001095 109.9120 313.5368 14.59239113171513
CZ-4B R/B               
1 27432U 02024C   24132.89121037  .00000405  00000+0  23236-3 0  9996
2 27432  98.9781 175.0320 0051328 113.4275  58.7563 14.14312821134977
